[{"CCSDS_OMM_VERS":"2.0","COMMENT":"GENERATED VIA SPACE-TRACK.ORG API","CREATION_DATE":"2004-08-15T23:35:47","ORIGINATOR":"18 SPCS","OBJECT_NAME":"SATURN 1B DEB","OBJECT_ID":"1966-059W","CENTER_NAME":"EARTH","REF_FRAME":"TEME","TIME_SYSTEM":"UTC","MEAN_ELEMENT_THEORY":"SGP4","EPOCH":"1966-07-08T14:28:26.707295","MEAN_MOTION":"16.00574095","ECCENTRICITY":"0.01183840","INCLINATION":"32.0221","RA_OF_ASC_NODE":"344.8098","ARG_OF_PERICENTER":"182.5993","MEAN_ANOMALY":"177.4018","EPHEMERIS_TYPE":"0","CLASSIFICATION_TYPE":"U","NORAD_CAT_ID":"2315","ELEMENT_SET_NO":"999","REV_AT_EPOCH":"44","BSTAR":"0.00000000000000","MEAN_MOTION_DOT":"0.00130758","MEAN_MOTION_DDOT":"0.0000401900000","SEMIMAJOR_AXIS":"6650.969","PERIOD":"89.967","APOAPSIS":"351.570","PERIAPSIS":"194.097","OBJECT_TYPE":"DEBRIS","RCS_SIZE":null,"COUNTRY_CODE":null,"LAUNCH_DATE":null,"SITE":null,"DECAY_DATE":"1966-07-16","FILE":"33914","GP_ID":"8720378","TLE_LINE0":"0 SATURN 1B DEB","TLE_LINE1":"1 02315U 66059  W 66189.60308689  .00130758 +40190-4 +00000-0 0  9999","TLE_LINE2":"2 02315 032.0221 344.8098 0118384 182.5993 177.4018 16.00574095000444"},{"CCSDS_OMM_VERS":"2.0","COMMENT":"GENERATED VIA SPACE-TRACK.ORG API","CREATION_DATE":"2004-08-15T23:35:47","ORIGINATOR":"18 SPCS","OBJECT_NAME":"SATURN 1B DEB","OBJECT_ID":"1966-059P","CENTER_NAME":"EARTH","REF_FRAME":"TEME","TIME_SYSTEM":"UTC","MEAN_ELEMENT_THEORY":"SGP4","EPOCH":"1966-07-09T06:39:33.821856","MEAN_MOTION":"16.13188816","ECCENTRICITY":"0.00234940","INCLINATION":"32.7431","RA_OF_ASC_NODE":"337.7685","ARG_OF_PERICENTER":"170.7249","MEAN_ANOMALY":"189.3760","EPHEMERIS_TYPE":"0","CLASSIFICATION_TYPE":"U","NORAD_CAT_ID":"2308","ELEMENT_SET_NO":"999","REV_AT_EPOCH":"55","BSTAR":"0.00000000000000","MEAN_MOTION_DOT":"0.00275210","MEAN_MOTION_DDOT":"0.0002138800000","SEMIMAJOR_AXIS":"6616.251","PERIOD":"89.264","APOAPSIS":"253.660","PERIAPSIS":"222.571","OBJECT_TYPE":"DEBRIS","RCS_SIZE":null,"COUNTRY_CODE":null,"LAUNCH_DATE":null,"SITE":null,"DECAY_DATE":"1966-07-14","FILE":"33914","GP_ID":"8720371","TLE_LINE0":"0 SATURN 1B DEB","TLE_LINE1":"1 02308U 66059  P 66190.27747479  .00275210 +21388-3 +00000-0 0  9990","TLE_LINE2":"2 02308 032.7431 337.7685 0023494 170.7249 189.3760 16.13188816000553"},{"CCSDS_OMM_VERS":"2.0","COMMENT":"GENERATED VIA SPACE-TRACK.ORG API","CREATION_DATE":"2004-08-15T23:35:47","ORIGINATOR":"18 SPCS","OBJECT_NAME":"SATURN 1B DEB","OBJECT_ID":"1966-059F","CENTER_NAME":"EARTH","REF_FRAME":"TEME","TIME_SYSTEM":"UTC","MEAN_ELEMENT_THEORY":"SGP4","EPOCH":"1966-07-09T06:45:22.159871","MEAN_MOTION":"16.06550633","ECCENTRICITY":"0.00675930","INCLINATION":"32.0505","RA_OF_ASC_NODE":"338.5733","ARG_OF_PERICENTER":"183.3851","MEAN_ANOMALY":"176.6316","EPHEMERIS_TYPE":"0","CLASSIFICATION_TYPE":"U","NORAD_CAT_ID":"2300","ELEMENT_SET_NO":"999","REV_AT_EPOCH":"55","BSTAR":"0.00000000000000","MEAN_MOTION_DOT":"0.00000496","MEAN_MOTION_DDOT":"0.6284200000000","SEMIMAJOR_AXIS":"6634.463","PERIOD":"89.633","APOAPSIS":"301.173","PERIAPSIS":"211.484","OBJECT_TYPE":"DEBRIS","RCS_SIZE":null,"COUNTRY_CODE":null,"LAUNCH_DATE":null,"SITE":null,"DECAY_DATE":"1966-07-12","FILE":"33914","GP_ID":"8720363","TLE_LINE0":"0 SATURN 1B DEB","TLE_LINE1":"1 02300U 66059  F 66190.28150648  .00000496 +62842-0 +00000-0 0  9998","TLE_LINE2":"2 02300 032.0505 338.5733 0067593 183.3851 176.6316 16.06550633000558"},{"CCSDS_OMM_VERS":"2.0","COMMENT":"GENERATED VIA SPACE-TRACK.ORG API","CREATION_DATE":"2004-08-15T23:35:47","ORIGINATOR":"18 SPCS","OBJECT_NAME":"SATURN 1B DEB","OBJECT_ID":"1966-059G","CENTER_NAME":"EARTH","REF_FRAME":"TEME","TIME_SYSTEM":"UTC","MEAN_ELEMENT_THEORY":"SGP4","EPOCH":"1966-07-09T08:08:36.181824","MEAN_MOTION":"16.08782864","ECCENTRICITY":"0.01138260","INCLINATION":"32.1924","RA_OF_ASC_NODE":"338.6817","ARG_OF_PERICENTER":"199.8314","MEAN_ANOMALY":"159.7799","EPHEMERIS_TYPE":"0","CLASSIFICATION_TYPE":"U","NORAD_CAT_ID":"2301","ELEMENT_SET_NO":"999","REV_AT_EPOCH":"56","BSTAR":"0.00000000000000","MEAN_MOTION_DOT":"0.00650245","MEAN_MOTION_DDOT":"0.0011141000000","SEMIMAJOR_AXIS":"6628.325","PERIOD":"89.508","APOAPSIS":"325.638","PERIAPSIS":"174.742","OBJECT_TYPE":"DEBRIS","RCS_SIZE":null,"COUNTRY_CODE":null,"LAUNCH_DATE":null,"SITE":null,"DECAY_DATE":"1966-07-11","FILE":"33914","GP_ID":"8720364","TLE_LINE0":"0 SATURN 1B DEB","TLE_LINE1":"1 02301U 66059  G 66190.33930766  .00650245 +11141-2 +00000-0 0  9993","TLE_LINE2":"2 02301 032.1924 338.6817 0113826 199.8314 159.7799 16.08782864000569"},{"CCSDS_OMM_VERS":"2.0","COMMENT":"GENERATED VIA SPACE-TRACK.ORG API","CREATION_DATE":"2004-08-15T23:35:47","ORIGINATOR":"18 SPCS","OBJECT_NAME":"SATURN 1B DEB","OBJECT_ID":"1966-059D","CENTER_NAME":"EARTH","REF_FRAME":"TEME","TIME_SYSTEM":"UTC","MEAN_ELEMENT_THEORY":"SGP4","EPOCH":"1966-07-09T08:17:35.942495","MEAN_MOTION":"16.06988097","ECCENTRICITY":"0.00893790","INCLINATION":"32.2338","RA_OF_ASC_NODE":"337.7354","ARG_OF_PERICENTER":"193.9911","MEAN_ANOMALY":"165.8204","EPHEMERIS_TYPE":"0","CLASSIFICATION_TYPE":"U","NORAD_CAT_ID":"2298","ELEMENT_SET_NO":"999","REV_AT_EPOCH":"56","BSTAR":"0.00000000000000","MEAN_MOTION_DOT":"0.01088570","MEAN_MOTION_DDOT":"0.0030412000000","SEMIMAJOR_AXIS":"6633.259","PERIOD":"89.608","APOAPSIS":"314.412","PERIAPSIS":"195.837","OBJECT_TYPE":"DEBRIS","RCS_SIZE":null,"COUNTRY_CODE":null,"LAUNCH_DATE":null,"SITE":null,"DECAY_DATE":"1966-07-12","FILE":"33914","GP_ID":"8720361","TLE_LINE0":"0 SATURN 1B DEB","TLE_LINE1":"1 02298U 66059  D 66190.34555489  .01088570 +30412-2 +00000-0 0  9993","TLE_LINE2":"2 02298 032.2338 337.7354 0089379 193.9911 165.8204 16.06988097000566"},{"CCSDS_OMM_VERS":"2.0","COMMENT":"GENERATED VIA SPACE-TRACK.ORG API","CREATION_DATE":"2004-08-15T23:35:47","ORIGINATOR":"18 SPCS","OBJECT_NAME":"SATURN 1B DEB","OBJECT_ID":"1966-059T","CENTER_NAME":"EARTH","REF_FRAME":"TEME","TIME_SYSTEM":"UTC","MEAN_ELEMENT_THEORY":"SGP4","EPOCH":"1966-07-09T08:19:50.971872","MEAN_MOTION":"16.04052078","ECCENTRICITY":"0.00640960","INCLINATION":"32.4960","RA_OF_ASC_NODE":"338.1122","ARG_OF_PERICENTER":"119.7860","MEAN_ANOMALY":"240.8686","EPHEMERIS_TYPE":"0","CLASSIFICATION_TYPE":"U","NORAD_CAT_ID":"2312","ELEMENT_SET_NO":"999","REV_AT_EPOCH":"56","BSTAR":"0.00000000000000","MEAN_MOTION_DOT":"0.00101002","MEAN_MOTION_DDOT":"0.0000251150000","SEMIMAJOR_AXIS":"6641.351","PERIOD":"89.772","APOAPSIS":"305.785","PERIAPSIS":"220.648","OBJECT_TYPE":"DEBRIS","RCS_SIZE":null,"COUNTRY_CODE":null,"LAUNCH_DATE":null,"SITE":null,"DECAY_DATE":"1966-07-15","FILE":"33914","GP_ID":"8720375","TLE_LINE0":"0 SATURN 1B DEB","TLE_LINE1":"1 02312U 66059  T 66190.34711773  .00101002 +25115-4 +00000-0 0  9991","TLE_LINE2":"2 02312 032.4960 338.1122 0064096 119.7860 240.8686 16.04052078000569"},{"CCSDS_OMM_VERS":"2.0","COMMENT":"GENERATED VIA SPACE-TRACK.ORG API","CREATION_DATE":"2004-08-15T23:35:47","ORIGINATOR":"18 SPCS","OBJECT_NAME":"SATURN 1B DEB","OBJECT_ID":"1966-059U","CENTER_NAME":"EARTH","REF_FRAME":"TEME","TIME_SYSTEM":"UTC","MEAN_ELEMENT_THEORY":"SGP4","EPOCH":"1966-07-09T08:21:44.392608","MEAN_MOTION":"16.02115383","ECCENTRICITY":"0.01407750","INCLINATION":"32.0719","RA_OF_ASC_NODE":"338.9656","ARG_OF_PERICENTER":"72.3399","MEAN_ANOMALY":"289.1985","EPHEMERIS_TYPE":"0","CLASSIFICATION_TYPE":"U","NORAD_CAT_ID":"2313","ELEMENT_SET_NO":"999","REV_AT_EPOCH":"55","BSTAR":"0.00000000000000","MEAN_MOTION_DOT":"0.00169544","MEAN_MOTION_DDOT":"0.0000689430000","SEMIMAJOR_AXIS":"6646.702","PERIOD":"89.881","APOAPSIS":"362.136","PERIAPSIS":"174.998","OBJECT_TYPE":"DEBRIS","RCS_SIZE":null,"COUNTRY_CODE":null,"LAUNCH_DATE":null,"SITE":null,"DECAY_DATE":"1966-07-15","FILE":"33914","GP_ID":"8720376","TLE_LINE0":"0 SATURN 1B DEB","TLE_LINE1":"1 02313U 66059  U 66190.34843047  .00169544 +68943-4 +00000-0 0  9993","TLE_LINE2":"2 02313 032.0719 338.9656 0140775 072.3399 289.1985 16.02115383000552"},{"CCSDS_OMM_VERS":"2.0","COMMENT":"GENERATED VIA SPACE-TRACK.ORG API","CREATION_DATE":"2004-08-15T23:35:47","ORIGINATOR":"18 SPCS","OBJECT_NAME":"SATURN 1B DEB","OBJECT_ID":"1966-059R","CENTER_NAME":"EARTH","REF_FRAME":"TEME","TIME_SYSTEM":"UTC","MEAN_ELEMENT_THEORY":"SGP4","EPOCH":"1966-07-09T08:34:40.835712","MEAN_MOTION":"15.66818957","ECCENTRICITY":"0.02775390","INCLINATION":"31.8787","RA_OF_ASC_NODE":"339.4128","ARG_OF_PERICENTER":"100.4249","MEAN_ANOMALY":"262.7168","EPHEMERIS_TYPE":"0","CLASSIFICATION_TYPE":"U","NORAD_CAT_ID":"2310","ELEMENT_SET_NO":"999","REV_AT_EPOCH":"54","BSTAR":"0.00000000000000","MEAN_MOTION_DOT":"0.00115318","MEAN_MOTION_DDOT":"0.0000222840000","SEMIMAJOR_AXIS":"6746.153","PERIOD":"91.905","APOAPSIS":"555.250","PERIAPSIS":"180.786","OBJECT_TYPE":"DEBRIS","RCS_SIZE":null,"COUNTRY_CODE":null,"LAUNCH_DATE":null,"SITE":null,"DECAY_DATE":"1966-07-19","FILE":"33914","GP_ID":"8720373","TLE_LINE0":"0 SATURN 1B DEB","TLE_LINE1":"1 02310U 66059  R 66190.35741708  .00115318 +22284-4 +00000-0 0  9990","TLE_LINE2":"2 02310 031.8787 339.4128 0277539 100.4249 262.7168 15.66818957000542"}]